CS2                     
1 49262U 21088C   26068.73485932  .00018033  00000+0  56178-3 0  9999
2 49262  97.3928 134.2907 0011637  82.3491 277.9072 15.33255930245263
STARLINK-34530          
1 64491U 25133V   26068.40120749  .00019701  00000+0  67542-3 0  9991
2 64491  53.1589 118.1746 0001292 142.0568 218.0524 15.30205250 41128
