[{"OBJECT_NAME":"CS2","OBJECT_ID":"2021-088C","EPOCH":"2026-03-09T17:38:11.846112","MEAN_MOTION":15.3325593,"ECCENTRICITY":0.00116375,"INCLINATION":97.3928,"RA_OF_ASC_NODE":134.2907,"ARG_OF_PERICENTER":82.3491,"MEAN_ANOMALY":277.9072,"EPHEMERIS_TYPE":0,"CLASSIFICATION_TYPE":"U","NORAD_CAT_ID":49262,"ELEMENT_SET_NO":999,"REV_AT_EPOCH":24526,"BSTAR":0.0005617759,"MEAN_MOTION_DOT":0.00018033,"MEAN_MOTION_DDOT":0},{"OBJECT_NAME":"STARLINK-34530","OBJECT_ID":"2025-133V","EPOCH":"2026-03-09T09:37:44.327136","MEAN_MOTION":15.3020525,"ECCENTRICITY":0.00012923,"INCLINATION":53.1589,"RA_OF_ASC_NODE":118.1746,"ARG_OF_PERICENTER":142.0568,"MEAN_ANOMALY":218.0524,"EPHEMERIS_TYPE":0,"CLASSIFICATION_TYPE":"U","NORAD_CAT_ID":64491,"ELEMENT_SET_NO":999,"REV_AT_EPOCH":4112,"BSTAR":0.00067541763,"MEAN_MOTION_DOT":0.00019701,"MEAN_MOTION_DDOT":0}]
